$$SOE
2461288.500000000, A.D. 2026-Sep-05 00:00:00.0000, -1.506719992101162E+08, -2.938175374595305E+08, 1.807178675022261E+07,
2461295.500000000, A.D. 2026-Sep-12 00:00:00.0000, -1.393657051445419E+08, -2.991946646831166E+08, 1.931400729202642E+07,
2461302.500000000, A.D. 2026-Sep-19 00:00:00.0000, -1.278722327488335E+08, -3.041699844809882E+08, 2.053028864939609E+07,
2461309.500000000, A.D. 2026-Sep-26 00:00:00.0000, -1.162069686678120E+08, -3.087366997407839E+08, 2.171898956288104E+07,
2461316.500000000, A.D. 2026-Oct-03 00:00:00.0000, -1.043855881629652E+08, -3.128886898987346E+08, 2.287851407071067E+07,
2461323.500000000, A.D. 2026-Oct-10 00:00:00.0000, -9.242401920775378E+07, -3.166205247742487E+08, 2.400731517109245E+07,
2461330.500000000, A.D. 2026-Oct-17 00:00:00.0000, -8.033840578275900E+07, -3.199274760928931E+08, 2.510389830863631E+07,
2461337.500000000, A.D. 2026-Oct-24 00:00:00.0000, -6.814507053883180E+07, -3.228055266684245E+08, 2.616682466331582E+07,
2461344.500000000, A.D. 2026-Oct-31 00:00:00.0000, -5.586047692776424E+07, -3.252513772766370E+08, 2.719471421193804E+07,
2461351.500000000, A.D. 2026-Nov-07 00:00:00.0000, -4.350119066173895E+07, -3.272624511303279E+08, 2.818624852311054E+07,
2461358.500000000, A.D. 2026-Nov-14 00:00:00.0000, -3.108384050045776E+07, -3.288368950693387E+08, 2.914017332741037E+07,
2461365.500000000, A.D. 2026-Nov-21 00:00:00.0000, -1.862508037509184E+07, -3.299735768022566E+08, 3.005530107380970E+07,
2461372.500000000, A.D. 2026-Nov-28 00:00:00.0000, -6.141554039062385E+06, -3.306720812429746E+08, 3.093051330868381E+07,
2461379.500000000, A.D. 2026-Dec-05 00:00:00.0000, 6.350141188967325E+06, -3.309327066538783E+08, 3.176476248479061E+07,
2461386.500000000, A.D. 2026-Dec-12 00:00:00.0000, 1.883349157611720E+07, -3.307564575594670E+08, 3.255707343527406E+07,
2461393.500000000, A.D. 2026-Dec-19 00:00:00.0000, 3.129210296259971E+07, -3.301450345126249E+08, 3.330654468431270E+07,
2461400.500000000, A.D. 2026-Dec-26 00:00:00.0000, 4.370973528327502E+07, -3.291008216828825E+08, 3.401234953627758E+07,
2461407.500000000, A.D. 2027-Jan-02 00:00:00.0000, 5.607033575121740E+07, -3.276268725710925E+08, 3.467373690400818E+07,
2461414.500000000, A.D. 2027-Jan-09 00:00:00.0000, 6.835807068456008E+07, -3.257268939539539E+08, 3.529003187005819E+07,
2461421.500000000, A.D. 2027-Jan-16 00:00:00.0000, 8.055735589067483E+07, -3.234052281815606E+08, 3.586063598253731E+07,
2461428.500000000, A.D. 2027-Jan-23 00:00:00.0000, 9.265288554841769E+07, -3.206668340084108E+08, 3.638502728414030E+07,
2461435.500000000, A.D. 2027-Jan-30 00:00:00.0000, 1.046296596859096E+08, -3.175172661552666E+08, 3.686276006183742E+07,
2461442.500000000, A.D. 2027-Feb-06 00:00:00.0000, 1.164730106017934E+08, -3.139626534170477E+08, 3.729346431652777E+07,
2461449.500000000, A.D. 2027-Feb-13 00:00:00.0000, 1.281686277066479E+08, -3.100096742538412E+08, 3.767684510578233E+07,
2461456.500000000, A.D. 2027-Feb-20 00:00:00.0000, 1.397025783722779E+08, -3.056655308109611E+08, 3.801268192312329E+07,
2461463.500000000, A.D. 2027-Feb-27 00:00:00.0000, 1.510613261528165E+08, -3.009379247336183E+08, 3.830082773465030E+07,
2461470.500000000, A.D. 2027-Mar-06 00:00:00.0000, 1.622317493809076E+08, -2.958350330061628E+08, 3.854120756638759E+07,
2461477.500000000, A.D. 2027-Mar-13 00:00:00.0000, 1.732011585377493E+08, -2.903654819190441E+08, 3.873381697129220E+07,
2461484.500000000, A.D. 2027-Mar-20 00:00:00.0000, 1.839573112784756E+08, -2.845383201462664E+08, 3.887872042647156E+07,
2461491.500000000, A.D. 2027-Mar-27 00:00:00.0000, 1.944884253374466E+08, -2.783629916247772E+08, 3.897604961268076E+07,
2461498.500000000, A.D. 2027-Apr-03 00:00:00.0000, 2.047831895489877E+08, -2.718493084203613E+08, 3.902600156926281E+07,
2461505.500000000, A.D. 2027-Apr-10 00:00:00.0000, 2.148307730847353E+08, -2.650074236867146E+08, 3.902883673595431E+07,
2461512.500000000, A.D. 2027-Apr-17 00:00:00.0000, 2.246208329747177E+08, -2.578478048511918E+08, 3.898487689167926E+07,
2461519.500000000, A.D. 2027-Apr-24 00:00:00.0000, 2.341435200433581E+08, -2.503812071944647E+08, 3.889450298894227E+07,
2461526.500000000, A.D. 2027-May-01 00:00:00.0000, 2.433894836245609E+08, -2.426186478891135E+08, 3.875815286931081E+07,
2461533.500000000, A.D. 2027-May-08 00:00:00.0000, 2.523498754419341E+08, -2.345713798373071E+08, 3.857631890635615E+07,
2461540.500000000, A.D. 2027-May-15 00:00:00.0000, 2.610163512427750E+08, -2.262508644423816E+08, 3.834954580702101E+07,
2461547.500000000, A.D. 2027-May-22 00:00:00.0000, 2.693810687057919E+08, -2.176687459879605E+08, 3.807842851796544E+07,
2461554.500000000, A.D. 2027-May-29 00:00:00.0000, 2.774366850603634E+08, -2.088368291626718E+08, 3.776360982179702E+07,
2461561.500000000, A.D. 2027-Jun-05 00:00:00.0000, 2.851763553860244E+08, -1.997670566583273E+08, 3.740577780953486E+07,
2461568.500000000, A.D. 2027-Jun-12 00:00:00.0000, 2.925937296694993E+08, -1.904714864605834E+08, 3.700566345920858E+07,
2461575.500000000, A.D. 2027-Jun-19 00:00:00.0000, 2.996829483728352E+08, -1.809622698080516E+08, 3.656403828372172E+07,
2461582.500000000, A.D. 2027-Jun-26 00:00:00.0000, 3.064386368766576E+08, -1.712516301131519E+08, 3.608171200931363E+07,
2461589.500000000, A.D. 2027-Jul-03 00:00:00.0000, 3.128558990150549E+08, -1.613518428608891E+08, 3.555953028098210E+07,
2461596.500000000, A.D. 2027-Jul-10 00:00:00.0000, 3.189303098222982E+08, -1.512752164948753E+08, 3.499837239952129E+07,
2461603.500000000, A.D. 2027-Jul-17 00:00:00.0000, 3.246579076087414E+08, -1.410340743417601E+08, 3.439914909025183E+07,
2461610.500000000, A.D. 2027-Jul-24 00:00:00.0000, 3.300351855991540E+08, -1.306407376428673E+08, 3.376280028928776E+07,
2461617.500000000, A.D. 2027-Jul-31 00:00:00.0000, 3.350590836183283E+08, -1.201075094554750E+08, 3.309029293318633E+07,
2461624.500000000, A.D. 2027-Aug-07 00:00:00.0000, 3.397269796981280E+08, -1.094466582644568E+08, 3.238261886958734E+07,
2461631.500000000, A.D. 2027-Aug-14 00:00:00.0000, 3.440366793796843E+08, -9.867040155091877E+07, 3.164079308467008E+07,
2461638.500000000, A.D. 2027-Aug-21 00:00:00.0000, 3.479864033943145E+08, -8.779089267304775E+07, 3.086585191875065E+07,
2461645.500000000, A.D. 2027-Aug-28 00:00:00.0000, 3.515747772116731E+08, -7.682020983884221E+07, 3.005885105472936E+07,
2461652.500000000, A.D. 2027-Sep-04 00:00:00.0000, 3.548008213303975E+08, -6.577034464731862E+07, 2.922086359347844E+07,
2461659.500000000, A.D. 2027-Sep-11 00:00:00.0000, 3.576639409694038E+08, -5.465319083726174E+07, 2.835297829107787E+07,
2461666.500000000, A.D. 2027-Sep-18 00:00:00.0000, 3.601639153412265E+08, -4.348053386870169E+07, 2.745629789269630E+07,
2461673.500000000, A.D. 2027-Sep-25 00:00:00.0000, 3.623008867801682E+08, -3.226404138613053E+07, 2.653193753542719E+07,
2461680.500000000, A.D. 2027-Oct-02 00:00:00.0000, 3.640753498416772E+08, -2.101525450421526E+07, 2.558102321505792E+07,
2461687.500000000, A.D. 2027-Oct-09 00:00:00.0000, 3.654881404355146E+08, -9.745579887177302E+06, 2.460469031417682E+07,
2461694.500000000, A.D. 2027-Oct-16 00:00:00.0000, 3.665404250947391E+08, 1.533717356296753E+06, 2.360408218128610E+07,
2461701.500000000, A.D. 2027-Oct-23 00:00:00.0000, 3.672336906756619E+08, 1.281151998806481E+07, 2.258034873604345E+07,
2461708.500000000, A.D. 2027-Oct-30 00:00:00.0000, 3.675697348916942E+08, 2.407686480690647E+07, 2.153464511459487E+07,
2461715.500000000, A.D. 2027-Nov-06 00:00:00.0000, 3.675506565432561E+08, 3.531894982922274E+07, 2.046813055276863E+07,
2461722.500000000, A.D. 2027-Nov-13 00:00:00.0000, 3.671788434877636E+08, 4.652714044079396E+07, 1.938196751925312E+07,
2461729.500000000, A.D. 2027-Nov-20 00:00:00.0000, 3.664569612739709E+08, 5.769097236157170E+07, 1.827732065195487E+07,
2461736.500000000, A.D. 2027-Nov-27 00:00:00.0000, 3.653879440710846E+08, 6.880015441865188E+07, 1.715535558849939E+07,
2461743.500000000, A.D. 2027-Dec-04 00:00:00.0000, 3.639749858820611E+08, 7.984457207455951E+07, 1.601723794900821E+07,
2461750.500000000, A.D. 2027-Dec-11 00:00:00.0000, 3.622215315039144E+08, 9.081429077904645E+07, 1.486413244101931E+07,
2461757.500000000, A.D. 2027-Dec-18 00:00:00.0000, 3.601312675217210E+08, 1.016995588361879E+08, 1.369720203167155E+07,
2461764.500000000, A.D. 2027-Dec-25 00:00:00.0000, 3.577081134981727E+08, 1.124908098141814E+08, 1.251760717096364E+07,
2461771.500000000, A.D. 2028-Jan-01 00:00:00.0000, 3.549562134079280E+08, 1.231786645401138E+08, 1.132650506122263E+07,
$$EOE